MALLIGYONG-1            
1 58400U 23179A   24088.18729013  .00007258  00000+0  32391-3 0  9994
2 58400  97.4146 336.2479 0009634 175.7577 184.3743 15.21635056 19403
